[{"OBJECT_NAME":"STARLINK-34369","OBJECT_ID":"2025-123G","EPOCH":"2026-03-09T17:36:43.094304","MEAN_MOTION":14.98333066,"ECCENTRICITY":0.00038672,"INCLINATION":70.002,"RA_OF_ASC_NODE":194.4002,"ARG_OF_PERICENTER":269.3151,"MEAN_ANOMALY":90.7565,"EPHEMERIS_TYPE":0,"CLASSIFICATION_TYPE":"U","NORAD_CAT_ID":64297,"ELEMENT_SET_NO":999,"REV_AT_EPOCH":4162,"BSTAR":0.00032177252,"MEAN_MOTION_DOT":3.749e-5,"MEAN_MOTION_DDOT":0},{"OBJECT_NAME":"ATLAS 28E DEB","OBJECT_ID":"1990-031E","EPOCH":"2026-03-09T22:13:15.208608","MEAN_MOTION":14.88062431,"ECCENTRICITY":0.00498313,"INCLINATION":89.8423,"RA_OF_ASC_NODE":265.8289,"ARG_OF_PERICENTER":258.935,"MEAN_ANOMALY":100.6272,"EPHEMERIS_TYPE":0,"CLASSIFICATION_TYPE":"U","NORAD_CAT_ID":20564,"ELEMENT_SET_NO":999,"REV_AT_EPOCH":35731,"BSTAR":0.00023704845,"MEAN_MOTION_DOT":2.245e-5,"MEAN_MOTION_DDOT":0}]
